<?xml version="1.0" encoding="UTF-8"?>
<kml xmlns="http://www.opengis.net/kml/2.2"><Document><name>NSTT 2026 - Half-Mile Checkpoints</name><description>Runner-only draft course for the No Shortcuts Time Trial (Santa Monica to San Diego, 23 Oct 2026). Built from the organizer's published runner turn list. It includes one checkpoint at each completed half-mile route segment and intentionally excludes vehicle logistics, relay assignments, and handoffs. Important: validate the LA River Trail and coastal portions against the organizer's notes; this is a planning map, not a safety or navigation authority. The PCH exit is interpreted as Ocean Blue Environmental at 925 W Esther Street in Long Beach. The line from Ocean Blue to Del Prado is pinned to the organizer's Highway 1/PCH corridor and is a road-alignment reference, not a pedestrian-safety validation. The Segment 162 to Oceanside Chevron transfer follows I-5 to Exit 54C as directed by the supplied route sheet; it is not runner-safety validation and must be field-reviewed before race day.</description>
  <Style id="mileMarker"><IconStyle><color>ff00a5ff</color><scale>0.9</scale></IconStyle></Style><Folder><name>Runner half-mile checkpoints</name>
    <description>Start, finish, and one checkpoint at every completed half-mile runner segment.</description>
    <Placemark><name>Start - Santa Monica Pier</name><description>200 Santa Monica Pier, Santa Monica, CA 90401</description>
      <Point><coordinates>-118.4966405,34.0100103,0</coordinates></Point></Placemark>
    <Placemark><name>Finish - Milestone Running Shop</name><description>1892 Garnet Avenue, San Diego, CA 92109</description>
      <Point><coordinates>-117.2356012,32.8010272,0</coordinates></Point></Placemark>
    <Placemark><name>Checkpoint 001</name><description>Endpoint of completed half-mile Segment 001. Position is measured along the exported runner route geometry.</description>
      <styleUrl>#mileMarker</styleUrl><Point><coordinates>-118.49048460683026,34.007585667490744,0</coordinates></Point></Placemark>
    <Placemark><name>Checkpoint 002</name><description>Endpoint of completed half-mile Segment 002. Position is measured along the exported runner route geometry.</description>
      <styleUrl>#mileMarker</styleUrl><Point><coordinates>-118.4847131516026,34.002970147229455,0</coordinates></Point></Placemark>
    <Placemark><name>Checkpoint 003</name><description>Endpoint of completed half-mile Segment 003. Position is measured along the exported runner route geometry.</description>
      <styleUrl>#mileMarker</styleUrl><Point><coordinates>-118.47921924625831,33.99748623118127,0</coordinates></Point></Placemark>
    <Placemark><name>Checkpoint 004</name><description>Endpoint of completed half-mile Segment 004. Position is measured along the exported runner route geometry.</description>
      <styleUrl>#mileMarker</styleUrl><Point><coordinates>-118.47355866141947,33.99248896576152,0</coordinates></Point></Placemark>
    <Placemark><name>Checkpoint 005</name><description>Endpoint of completed half-mile Segment 005. Position is measured along the exported runner route geometry.</description>
      <styleUrl>#mileMarker</styleUrl><Point><coordinates>-118.46524957721371,33.990543,0</coordinates></Point></Placemark>
    <Placemark><name>Checkpoint 006</name><description>Endpoint of completed half-mile Segment 006. Position is measured along the exported runner route geometry.</description>
      <styleUrl>#mileMarker</styleUrl><Point><coordinates>-118.45753717656348,33.988205,0</coordinates></Point></Placemark>
    <Placemark><name>Checkpoint 007</name><description>Endpoint of completed half-mile Segment 007. Position is measured along the exported runner route geometry.</description>
      <styleUrl>#mileMarker</styleUrl><Point><coordinates>-118.44950125181397,33.989754876458704,0</coordinates></Point></Placemark>
    <Placemark><name>Checkpoint 008</name><description>Endpoint of completed half-mile Segment 008. Position is measured along the exported runner route geometry.</description>
      <styleUrl>#mileMarker</styleUrl><Point><coordinates>-118.44223215224356,33.993104926436935,0</coordinates></Point></Placemark>
    <Placemark><name>Checkpoint 009</name><description>Endpoint of completed half-mile Segment 009. Position is measured along the exported runner route geometry.</description>
      <styleUrl>#mileMarker</styleUrl><Point><coordinates>-118.4348290591622,33.99675698027927,0</coordinates></Point></Placemark>
    <Placemark><name>Checkpoint 010</name><description>Endpoint of completed half-mile Segment 010. Position is measured along the exported runner route geometry.</description>
      <styleUrl>#mileMarker</styleUrl><Point><coordinates>-118.4266604677629,33.99708995545115,0</coordinates></Point></Placemark>
    <Placemark><name>Checkpoint 011</name><description>Endpoint of completed half-mile Segment 011. Position is measured along the exported runner route geometry.</description>
      <styleUrl>#mileMarker</styleUrl><Point><coordinates>-118.41934874912228,33.99600083365128,0</coordinates></Point></Placemark>
    <Placemark><name>Checkpoint 012</name><description>Endpoint of completed half-mile Segment 012. Position is measured along the exported runner route geometry.</description>
      <styleUrl>#mileMarker</styleUrl><Point><coordinates>-118.41302416616487,33.99133716097223,0</coordinates></Point></Placemark>
    <Placemark><name>Checkpoint 013</name><description>Endpoint of completed half-mile Segment 013. Position is measured along the exported runner route geometry.</description>
      <styleUrl>#mileMarker</styleUrl><Point><coordinates>-118.40637809906154,33.98959706019598,0</coordinates></Point></Placemark>
    <Placemark><name>Checkpoint 014</name><description>Endpoint of completed half-mile Segment 014. Position is measured along the exported runner route geometry.</description>
      <styleUrl>#mileMarker</styleUrl><Point><coordinates>-118.399883642847,33.98500159991058,0</coordinates></Point></Placemark>
    <Placemark><name>Checkpoint 015</name><description>Endpoint of completed half-mile Segment 015. Position is measured along the exported runner route geometry.</description>
      <styleUrl>#mileMarker</styleUrl><Point><coordinates>-118.39459696744117,33.9796648655472,0</coordinates></Point></Placemark>
    <Placemark><name>Checkpoint 016</name><description>Endpoint of completed half-mile Segment 016. Position is measured along the exported runner route geometry.</description>
      <styleUrl>#mileMarker</styleUrl><Point><coordinates>-118.39478907483281,33.97250770417995,0</coordinates></Point></Placemark>
    <Placemark><name>Checkpoint 017</name><description>Endpoint of completed half-mile Segment 017. Position is measured along the exported runner route geometry.</description>
      <styleUrl>#mileMarker</styleUrl><Point><coordinates>-118.39001021496725,33.968963039073934,0</coordinates></Point></Placemark>
    <Placemark><name>Checkpoint 018</name><description>Endpoint of completed half-mile Segment 018. Position is measured along the exported runner route geometry.</description>
      <styleUrl>#mileMarker</styleUrl><Point><coordinates>-118.38185999626721,33.96850299653718,0</coordinates></Point></Placemark>
    <Placemark><name>Checkpoint 019</name><description>Endpoint of completed half-mile Segment 019. Position is measured along the exported runner route geometry.</description>
      <styleUrl>#mileMarker</styleUrl><Point><coordinates>-118.3753950059509,33.964209232085345,0</coordinates></Point></Placemark>
    <Placemark><name>Checkpoint 020</name><description>Endpoint of completed half-mile Segment 020. Position is measured along the exported runner route geometry.</description>
      <styleUrl>#mileMarker</styleUrl><Point><coordinates>-118.36932079066068,33.961737002406196,0</coordinates></Point></Placemark>
    <Placemark><name>Checkpoint 021</name><description>Endpoint of completed half-mile Segment 021. Position is measured along the exported runner route geometry.</description>
      <styleUrl>#mileMarker</styleUrl><Point><coordinates>-118.36066739297257,33.96179499802129,0</coordinates></Point></Placemark>
    <Placemark><name>Checkpoint 022</name><description>Endpoint of completed half-mile Segment 022. Position is measured along the exported runner route geometry.</description>
      <styleUrl>#mileMarker</styleUrl><Point><coordinates>-118.35214408420124,33.96191599896048,0</coordinates></Point></Placemark>
    <Placemark><name>Checkpoint 023</name><description>Endpoint of completed half-mile Segment 023. Position is measured along the exported runner route geometry.</description>
      <styleUrl>#mileMarker</styleUrl><Point><coordinates>-118.3444832113611,33.95987797604004,0</coordinates></Point></Placemark>
    <Placemark><name>Checkpoint 024</name><description>Endpoint of completed half-mile Segment 024. Position is measured along the exported runner route geometry.</description>
      <styleUrl>#mileMarker</styleUrl><Point><coordinates>-118.33589457239356,33.96011,0</coordinates></Point></Placemark>
    <Placemark><name>Checkpoint 025</name><description>Endpoint of completed half-mile Segment 025. Position is measured along the exported runner route geometry.</description>
      <styleUrl>#mileMarker</styleUrl><Point><coordinates>-118.32720093189802,33.96011,0</coordinates></Point></Placemark>
    <Placemark><name>Checkpoint 026</name><description>Endpoint of completed half-mile Segment 026. Position is measured along the exported runner route geometry.</description>
      <styleUrl>#mileMarker</styleUrl><Point><coordinates>-118.31861935351849,33.96010599829081,0</coordinates></Point></Placemark>
    <Placemark><name>Checkpoint 027</name><description>Endpoint of completed half-mile Segment 027. Position is measured along the exported runner route geometry.</description>
      <styleUrl>#mileMarker</styleUrl><Point><coordinates>-118.30990868509176,33.96009,0</coordinates></Point></Placemark>
    <Placemark><name>Checkpoint 028</name><description>Endpoint of completed half-mile Segment 028. Position is measured along the exported runner route geometry.</description>
      <styleUrl>#mileMarker</styleUrl><Point><coordinates>-118.30165346889498,33.95989,0</coordinates></Point></Placemark>
    <Placemark><name>Checkpoint 029</name><description>Endpoint of completed half-mile Segment 029. Position is measured along the exported runner route geometry.</description>
      <styleUrl>#mileMarker</styleUrl><Point><coordinates>-118.29297918339384,33.95992,0</coordinates></Point></Placemark>
    <Placemark><name>Checkpoint 030</name><description>Endpoint of completed half-mile Segment 030. Position is measured along the exported runner route geometry.</description>
      <styleUrl>#mileMarker</styleUrl><Point><coordinates>-118.28430532912665,33.95995899884965,0</coordinates></Point></Placemark>
    <Placemark><name>Checkpoint 031</name><description>Endpoint of completed half-mile Segment 031. Position is measured along the exported runner route geometry.</description>
      <styleUrl>#mileMarker</styleUrl><Point><coordinates>-118.27577642574632,33.95997599889608,0</coordinates></Point></Placemark>
    <Placemark><name>Checkpoint 032</name><description>Endpoint of completed half-mile Segment 032. Position is measured along the exported runner route geometry.</description>
      <styleUrl>#mileMarker</styleUrl><Point><coordinates>-118.26709696923918,33.96001000018624,0</coordinates></Point></Placemark>
    <Placemark><name>Checkpoint 033</name><description>Endpoint of completed half-mile Segment 033. Position is measured along the exported runner route geometry.</description>
      <styleUrl>#mileMarker</styleUrl><Point><coordinates>-118.25838520064579,33.96005,0</coordinates></Point></Placemark>
    <Placemark><name>Checkpoint 034</name><description>Endpoint of completed half-mile Segment 034. Position is measured along the exported runner route geometry.</description>
      <styleUrl>#mileMarker</styleUrl><Point><coordinates>-118.25065082135848,33.96029,0</coordinates></Point></Placemark>
    <Placemark><name>Checkpoint 035</name><description>Endpoint of completed half-mile Segment 035. Position is measured along the exported runner route geometry.</description>
      <styleUrl>#mileMarker</styleUrl><Point><coordinates>-118.24211391917578,33.96028199700651,0</coordinates></Point></Placemark>
    <Placemark><name>Checkpoint 036</name><description>Endpoint of completed half-mile Segment 036. Position is measured along the exported runner route geometry.</description>
      <styleUrl>#mileMarker</styleUrl><Point><coordinates>-118.23384152607545,33.95991519060705,0</coordinates></Point></Placemark>
    <Placemark><name>Checkpoint 037</name><description>Endpoint of completed half-mile Segment 037. Position is measured along the exported runner route geometry.</description>
      <styleUrl>#mileMarker</styleUrl><Point><coordinates>-118.22680272844785,33.95651392604737,0</coordinates></Point></Placemark>
    <Placemark><name>Checkpoint 038</name><description>Endpoint of completed half-mile Segment 038. Position is measured along the exported runner route geometry.</description>
      <styleUrl>#mileMarker</styleUrl><Point><coordinates>-118.21850109597452,33.95532700961271,0</coordinates></Point></Placemark>
    <Placemark><name>Checkpoint 039</name><description>Endpoint of completed half-mile Segment 039. Position is measured along the exported runner route geometry.</description>
      <styleUrl>#mileMarker</styleUrl><Point><coordinates>-118.20997584323496,33.954468987837195,0</coordinates></Point></Placemark>
    <Placemark><name>Checkpoint 040</name><description>Endpoint of completed half-mile Segment 040. Position is measured along the exported runner route geometry.</description>
      <styleUrl>#mileMarker</styleUrl><Point><coordinates>-118.20148723722598,33.95361503594333,0</coordinates></Point></Placemark>
    <Placemark><name>Checkpoint 041</name><description>Endpoint of completed half-mile Segment 041. Position is measured along the exported runner route geometry.</description>
      <styleUrl>#mileMarker</styleUrl><Point><coordinates>-118.19331041763272,33.95281405568436,0</coordinates></Point></Placemark>
    <Placemark><name>Checkpoint 042</name><description>Endpoint of completed half-mile Segment 042. Position is measured along the exported runner route geometry.</description>
      <styleUrl>#mileMarker</styleUrl><Point><coordinates>-118.18468668340334,33.95194896878625,0</coordinates></Point></Placemark>
    <Placemark><name>Checkpoint 043</name><description>Endpoint of completed half-mile Segment 043. Position is measured along the exported runner route geometry.</description>
      <styleUrl>#mileMarker</styleUrl><Point><coordinates>-118.18129092171958,33.94634284843577,0</coordinates></Point></Placemark>
    <Placemark><name>Checkpoint 044</name><description>Endpoint of completed half-mile Segment 044. Position is measured along the exported runner route geometry.</description>
      <styleUrl>#mileMarker</styleUrl><Point><coordinates>-118.1819569994059,33.9392730069792,0</coordinates></Point></Placemark>
    <Placemark><name>Checkpoint 045</name><description>Endpoint of completed half-mile Segment 045. Position is measured along the exported runner route geometry.</description>
      <styleUrl>#mileMarker</styleUrl><Point><coordinates>-118.1830951296543,33.93221167604183,0</coordinates></Point></Placemark>
    <Placemark><name>Checkpoint 046</name><description>Endpoint of completed half-mile Segment 046. Position is measured along the exported runner route geometry.</description>
      <styleUrl>#mileMarker</styleUrl><Point><coordinates>-118.18587292080153,33.92543219971789,0</coordinates></Point></Placemark>
    <Placemark><name>Checkpoint 047</name><description>Endpoint of completed half-mile Segment 047. Position is measured along the exported runner route geometry.</description>
      <styleUrl>#mileMarker</styleUrl><Point><coordinates>-118.18870407150939,33.918686843229416,0</coordinates></Point></Placemark>
    <Placemark><name>Checkpoint 048</name><description>Endpoint of completed half-mile Segment 048. Position is measured along the exported runner route geometry.</description>
      <styleUrl>#mileMarker</styleUrl><Point><coordinates>-118.1914858650694,33.9119083260823,0</coordinates></Point></Placemark>
    <Placemark><name>Checkpoint 049</name><description>Endpoint of completed half-mile Segment 049. Position is measured along the exported runner route geometry.</description>
      <styleUrl>#mileMarker</styleUrl><Point><coordinates>-118.19419796586018,33.905091241673986,0</coordinates></Point></Placemark>
    <Placemark><name>Checkpoint 050</name><description>Endpoint of completed half-mile Segment 050. Position is measured along the exported runner route geometry.</description>
      <styleUrl>#mileMarker</styleUrl><Point><coordinates>-118.18735723671352,33.903511998121644,0</coordinates></Point></Placemark>
    <Placemark><name>Checkpoint 051</name><description>Endpoint of completed half-mile Segment 051. Position is measured along the exported runner route geometry.</description>
      <styleUrl>#mileMarker</styleUrl><Point><coordinates>-118.18318601363623,33.90204698695666,0</coordinates></Point></Placemark>
    <Placemark><name>Checkpoint 052</name><description>Endpoint of completed half-mile Segment 052. Position is measured along the exported runner route geometry.</description>
      <styleUrl>#mileMarker</styleUrl><Point><coordinates>-118.18582297460176,33.895320273519516,0</coordinates></Point></Placemark>
    <Placemark><name>Checkpoint 053</name><description>Endpoint of completed half-mile Segment 053. Position is measured along the exported runner route geometry.</description>
      <styleUrl>#mileMarker</styleUrl><Point><coordinates>-118.186937976757,33.88815020337629,0</coordinates></Point></Placemark>
    <Placemark><name>Checkpoint 054</name><description>Endpoint of completed half-mile Segment 054. Position is measured along the exported runner route geometry.</description>
      <styleUrl>#mileMarker</styleUrl><Point><coordinates>-118.18808992714463,33.88099443448296,0</coordinates></Point></Placemark>
    <Placemark><name>Checkpoint 055</name><description>Endpoint of completed half-mile Segment 055. Position is measured along the exported runner route geometry.</description>
      <styleUrl>#mileMarker</styleUrl><Point><coordinates>-118.189615,33.87389461932879,0</coordinates></Point></Placemark>
    <Placemark><name>Checkpoint 056</name><description>Endpoint of completed half-mile Segment 056. Position is measured along the exported runner route geometry.</description>
      <styleUrl>#mileMarker</styleUrl><Point><coordinates>-118.19314585761458,33.86730422703528,0</coordinates></Point></Placemark>
    <Placemark><name>Checkpoint 057</name><description>Endpoint of completed half-mile Segment 057. Position is measured along the exported runner route geometry.</description>
      <styleUrl>#mileMarker</styleUrl><Point><coordinates>-118.19713479008486,33.86087032386907,0</coordinates></Point></Placemark>
    <Placemark><name>Checkpoint 058</name><description>Endpoint of completed half-mile Segment 058. Position is measured along the exported runner route geometry.</description>
      <styleUrl>#mileMarker</styleUrl><Point><coordinates>-118.20115371055435,33.85446655980698,0</coordinates></Point></Placemark>
    <Placemark><name>Checkpoint 059</name><description>Endpoint of completed half-mile Segment 059. Position is measured along the exported runner route geometry.</description>
      <styleUrl>#mileMarker</styleUrl><Point><coordinates>-118.20251604110747,33.84735875515815,0</coordinates></Point></Placemark>
    <Placemark><name>Checkpoint 060</name><description>Endpoint of completed half-mile Segment 060. Position is measured along the exported runner route geometry.</description>
      <styleUrl>#mileMarker</styleUrl><Point><coordinates>-118.20299398271241,33.840153240174004,0</coordinates></Point></Placemark>
    <Placemark><name>Checkpoint 061</name><description>Endpoint of completed half-mile Segment 061. Position is measured along the exported runner route geometry.</description>
      <styleUrl>#mileMarker</styleUrl><Point><coordinates>-118.20382496557555,33.83295614381771,0</coordinates></Point></Placemark>
    <Placemark><name>Checkpoint 062</name><description>Endpoint of completed half-mile Segment 062. Position is measured along the exported runner route geometry.</description>
      <styleUrl>#mileMarker</styleUrl><Point><coordinates>-118.20457298758686,33.82575910691318,0</coordinates></Point></Placemark>
    <Placemark><name>Checkpoint 063</name><description>Endpoint of completed half-mile Segment 063. Position is measured along the exported runner route geometry.</description>
      <styleUrl>#mileMarker</styleUrl><Point><coordinates>-118.2048060087115,33.818553409077026,0</coordinates></Point></Placemark>
    <Placemark><name>Checkpoint 064</name><description>Endpoint of completed half-mile Segment 064. Position is measured along the exported runner route geometry.</description>
      <styleUrl>#mileMarker</styleUrl><Point><coordinates>-118.2047319979862,33.8113208076821,0</coordinates></Point></Placemark>
    <Placemark><name>Checkpoint 065</name><description>Endpoint of completed half-mile Segment 065. Position is measured along the exported runner route geometry.</description>
      <styleUrl>#mileMarker</styleUrl><Point><coordinates>-118.20456100064087,33.80409502177838,0</coordinates></Point></Placemark>
    <Placemark><name>Checkpoint 066</name><description>Endpoint of completed half-mile Segment 066. Position is measured along the exported runner route geometry.</description>
      <styleUrl>#mileMarker</styleUrl><Point><coordinates>-118.20438300217818,33.79686214269241,0</coordinates></Point></Placemark>
    <Placemark><name>Checkpoint 067</name><description>Endpoint of completed half-mile Segment 067. Position is measured along the exported runner route geometry.</description>
      <styleUrl>#mileMarker</styleUrl><Point><coordinates>-118.20405065793315,33.78988498226867,0</coordinates></Point></Placemark>
    <Placemark><name>Checkpoint 068</name><description>Endpoint of completed half-mile Segment 068. Position is measured along the exported runner route geometry.</description>
      <styleUrl>#mileMarker</styleUrl><Point><coordinates>-118.19545041547931,33.78975099968011,0</coordinates></Point></Placemark>
    <Placemark><name>Checkpoint 069</name><description>Endpoint of completed half-mile Segment 069. Position is measured along the exported runner route geometry.</description>
      <styleUrl>#mileMarker</styleUrl><Point><coordinates>-118.18674300883166,33.789757999992865,0</coordinates></Point></Placemark>
    <Placemark><name>Checkpoint 070</name><description>Endpoint of completed half-mile Segment 070. Position is measured along the exported runner route geometry.</description>
      <styleUrl>#mileMarker</styleUrl><Point><coordinates>-118.17803560637044,33.789768,0</coordinates></Point></Placemark>
    <Placemark><name>Checkpoint 071</name><description>Endpoint of completed half-mile Segment 071. Position is measured along the exported runner route geometry.</description>
      <styleUrl>#mileMarker</styleUrl><Point><coordinates>-118.1693282076421,33.78978099968998,0</coordinates></Point></Placemark>
    <Placemark><name>Checkpoint 072</name><description>Endpoint of completed half-mile Segment 072. Position is measured along the exported runner route geometry.</description>
      <styleUrl>#mileMarker</styleUrl><Point><coordinates>-118.16062079711641,33.789786000069896,0</coordinates></Point></Placemark>
    <Placemark><name>Checkpoint 073</name><description>Endpoint of completed half-mile Segment 073. Position is measured along the exported runner route geometry.</description>
      <styleUrl>#mileMarker</styleUrl><Point><coordinates>-118.15191338376373,33.78978899986779,0</coordinates></Point></Placemark>
    <Placemark><name>Checkpoint 074</name><description>Endpoint of completed half-mile Segment 074. Position is measured along the exported runner route geometry.</description>
      <styleUrl>#mileMarker</styleUrl><Point><coordinates>-118.14325831354509,33.78952122493452,0</coordinates></Point></Placemark>
    <Placemark><name>Checkpoint 075</name><description>Endpoint of completed half-mile Segment 075. Position is measured along the exported runner route geometry.</description>
      <styleUrl>#mileMarker</styleUrl><Point><coordinates>-118.13646791837598,33.78534593977593,0</coordinates></Point></Placemark>
    <Placemark><name>Checkpoint 076</name><description>Endpoint of completed half-mile Segment 076. Position is measured along the exported runner route geometry.</description>
      <styleUrl>#mileMarker</styleUrl><Point><coordinates>-118.12997688410225,33.78052291357294,0</coordinates></Point></Placemark>
    <Placemark><name>Checkpoint 077</name><description>Endpoint of completed half-mile Segment 077. Position is measured along the exported runner route geometry.</description>
      <styleUrl>#mileMarker</styleUrl><Point><coordinates>-118.12349645961628,33.77569034274424,0</coordinates></Point></Placemark>
    <Placemark><name>Checkpoint 078</name><description>Endpoint of completed half-mile Segment 078. Position is measured along the exported runner route geometry.</description>
      <styleUrl>#mileMarker</styleUrl><Point><coordinates>-118.11811412477726,33.77023235840833,0</coordinates></Point></Placemark>
    <Placemark><name>Checkpoint 079</name><description>Endpoint of completed half-mile Segment 079. Position is measured along the exported runner route geometry.</description>
      <styleUrl>#mileMarker</styleUrl><Point><coordinates>-118.11543701915564,33.76334903697484,0</coordinates></Point></Placemark>
    <Placemark><name>Checkpoint 080</name><description>Endpoint of completed half-mile Segment 080. Position is measured along the exported runner route geometry.</description>
      <styleUrl>#mileMarker</styleUrl><Point><coordinates>-118.11074395223031,33.757315949742306,0</coordinates></Point></Placemark>
    <Placemark><name>Checkpoint 081</name><description>Endpoint of completed half-mile Segment 081. Position is measured along the exported runner route geometry.</description>
      <styleUrl>#mileMarker</styleUrl><Point><coordinates>-118.10616312409215,33.75126743644378,0</coordinates></Point></Placemark>
    <Placemark><name>Checkpoint 082</name><description>Endpoint of completed half-mile Segment 082. Position is measured along the exported runner route geometry.</description>
      <styleUrl>#mileMarker</styleUrl><Point><coordinates>-118.10360472463218,33.74477084557075,0</coordinates></Point></Placemark>
    <Placemark><name>Checkpoint 083</name><description>Endpoint of completed half-mile Segment 083. Position is measured along the exported runner route geometry.</description>
      <styleUrl>#mileMarker</styleUrl><Point><coordinates>-118.09612587347274,33.74107093742778,0</coordinates></Point></Placemark>
    <Placemark><name>Checkpoint 084</name><description>Endpoint of completed half-mile Segment 084. Position is measured along the exported runner route geometry.</description>
      <styleUrl>#mileMarker</styleUrl><Point><coordinates>-118.08840117504553,33.737752104325125,0</coordinates></Point></Placemark>
    <Placemark><name>Checkpoint 085</name><description>Endpoint of completed half-mile Segment 085. Position is measured along the exported runner route geometry.</description>
      <styleUrl>#mileMarker</styleUrl><Point><coordinates>-118.08472612848404,33.73135735328364,0</coordinates></Point></Placemark>
    <Placemark><name>Checkpoint 086</name><description>Endpoint of completed half-mile Segment 086. Position is measured along the exported runner route geometry.</description>
      <styleUrl>#mileMarker</styleUrl><Point><coordinates>-118.07983478244506,33.72554380714048,0</coordinates></Point></Placemark>
    <Placemark><name>Checkpoint 087</name><description>Endpoint of completed half-mile Segment 087. Position is measured along the exported runner route geometry.</description>
      <styleUrl>#mileMarker</styleUrl><Point><coordinates>-118.07377222465908,33.720612200545396,0</coordinates></Point></Placemark>
    <Placemark><name>Checkpoint 088</name><description>Endpoint of completed half-mile Segment 088. Position is measured along the exported runner route geometry.</description>
      <styleUrl>#mileMarker</styleUrl><Point><coordinates>-118.06763405973116,33.71558104759828,0</coordinates></Point></Placemark>
    <Placemark><name>Checkpoint 089</name><description>Endpoint of completed half-mile Segment 089. Position is measured along the exported runner route geometry.</description>
      <styleUrl>#mileMarker</styleUrl><Point><coordinates>-118.0619991951016,33.71008522631183,0</coordinates></Point></Placemark>
    <Placemark><name>Checkpoint 090</name><description>Endpoint of completed half-mile Segment 090. Position is measured along the exported runner route geometry.</description>
      <styleUrl>#mileMarker</styleUrl><Point><coordinates>-118.0562411538746,33.70467313020959,0</coordinates></Point></Placemark>
    <Placemark><name>Checkpoint 091</name><description>Endpoint of completed half-mile Segment 091. Position is measured along the exported runner route geometry.</description>
      <styleUrl>#mileMarker</styleUrl><Point><coordinates>-118.05068001384842,33.69912501507757,0</coordinates></Point></Placemark>
    <Placemark><name>Checkpoint 092</name><description>Endpoint of completed half-mile Segment 092. Position is measured along the exported runner route geometry.</description>
      <styleUrl>#mileMarker</styleUrl><Point><coordinates>-118.0453170473584,33.693428049617566,0</coordinates></Point></Placemark>
    <Placemark><name>Checkpoint 093</name><description>Endpoint of completed half-mile Segment 093. Position is measured along the exported runner route geometry.</description>
      <styleUrl>#mileMarker</styleUrl><Point><coordinates>-118.03990812268842,33.68776112854046,0</coordinates></Point></Placemark>
    <Placemark><name>Checkpoint 094</name><description>Endpoint of completed half-mile Segment 094. Position is measured along the exported runner route geometry.</description>
      <styleUrl>#mileMarker</styleUrl><Point><coordinates>-118.03452904073548,33.68207504117466,0</coordinates></Point></Placemark>
    <Placemark><name>Checkpoint 095</name><description>Endpoint of completed half-mile Segment 095. Position is measured along the exported runner route geometry.</description>
      <styleUrl>#mileMarker</styleUrl><Point><coordinates>-118.02852662808547,33.6768416843581,0</coordinates></Point></Placemark>
    <Placemark><name>Checkpoint 096</name><description>Endpoint of completed half-mile Segment 096. Position is measured along the exported runner route geometry.</description>
      <styleUrl>#mileMarker</styleUrl><Point><coordinates>-118.0223549108831,33.67174793639499,0</coordinates></Point></Placemark>
    <Placemark><name>Checkpoint 097</name><description>Endpoint of completed half-mile Segment 097. Position is measured along the exported runner route geometry.</description>
      <styleUrl>#mileMarker</styleUrl><Point><coordinates>-118.01576082606987,33.667030874847946,0</coordinates></Point></Placemark>
    <Placemark><name>Checkpoint 098</name><description>Endpoint of completed half-mile Segment 098. Position is measured along the exported runner route geometry.</description>
      <styleUrl>#mileMarker</styleUrl><Point><coordinates>-118.0091842868801,33.662297206520634,0</coordinates></Point></Placemark>
    <Placemark><name>Checkpoint 099</name><description>Endpoint of completed half-mile Segment 099. Position is measured along the exported runner route geometry.</description>
      <styleUrl>#mileMarker</styleUrl><Point><coordinates>-118.00264474606008,33.657529816915755,0</coordinates></Point></Placemark>
    <Placemark><name>Checkpoint 100</name><description>Endpoint of completed half-mile Segment 100. Position is measured along the exported runner route geometry.</description>
      <styleUrl>#mileMarker</styleUrl><Point><coordinates>-117.99575693703864,33.65315196787219,0</coordinates></Point></Placemark>
    <Placemark><name>Checkpoint 101</name><description>Endpoint of completed half-mile Segment 101. Position is measured along the exported runner route geometry.</description>
      <styleUrl>#mileMarker</styleUrl><Point><coordinates>-117.98878200211122,33.648839001349955,0</coordinates></Point></Placemark>
    <Placemark><name>Checkpoint 102</name><description>Endpoint of completed half-mile Segment 102. Position is measured along the exported runner route geometry.</description>
      <styleUrl>#mileMarker</styleUrl><Point><coordinates>-117.9817948716122,33.64454192516147,0</coordinates></Point></Placemark>
    <Placemark><name>Checkpoint 103</name><description>Endpoint of completed half-mile Segment 103. Position is measured along the exported runner route geometry.</description>
      <styleUrl>#mileMarker</styleUrl><Point><coordinates>-117.97466617391892,33.640401100120606,0</coordinates></Point></Placemark>
    <Placemark><name>Checkpoint 104</name><description>Endpoint of completed half-mile Segment 104. Position is measured along the exported runner route geometry.</description>
      <styleUrl>#mileMarker</styleUrl><Point><coordinates>-117.96708811810815,33.63688305416882,0</coordinates></Point></Placemark>
    <Placemark><name>Checkpoint 105</name><description>Endpoint of completed half-mile Segment 105. Position is measured along the exported runner route geometry.</description>
      <styleUrl>#mileMarker</styleUrl><Point><coordinates>-117.9600134468054,33.632682297870275,0</coordinates></Point></Placemark>
    <Placemark><name>Checkpoint 106</name><description>Endpoint of completed half-mile Segment 106. Position is measured along the exported runner route geometry.</description>
      <styleUrl>#mileMarker</styleUrl><Point><coordinates>-117.9529569839059,33.62846299036608,0</coordinates></Point></Placemark>
    <Placemark><name>Checkpoint 107</name><description>Endpoint of completed half-mile Segment 107. Position is measured along the exported runner route geometry.</description>
      <styleUrl>#mileMarker</styleUrl><Point><coordinates>-117.94544621064404,33.62509101965127,0</coordinates></Point></Placemark>
    <Placemark><name>Checkpoint 108</name><description>Endpoint of completed half-mile Segment 108. Position is measured along the exported runner route geometry.</description>
      <styleUrl>#mileMarker</styleUrl><Point><coordinates>-117.93760356584279,33.62222317240279,0</coordinates></Point></Placemark>
    <Placemark><name>Checkpoint 109</name><description>Endpoint of completed half-mile Segment 109. Position is measured along the exported runner route geometry.</description>
      <styleUrl>#mileMarker</styleUrl><Point><coordinates>-117.92908031421418,33.62103996687199,0</coordinates></Point></Placemark>
    <Placemark><name>Checkpoint 110</name><description>Endpoint of completed half-mile Segment 110. Position is measured along the exported runner route geometry.</description>
      <styleUrl>#mileMarker</styleUrl><Point><coordinates>-117.92108599283831,33.618851,0</coordinates></Point></Placemark>
    <Placemark><name>Checkpoint 111</name><description>Endpoint of completed half-mile Segment 111. Position is measured along the exported runner route geometry.</description>
      <styleUrl>#mileMarker</styleUrl><Point><coordinates>-117.91323309430734,33.61602300887212,0</coordinates></Point></Placemark>
    <Placemark><name>Checkpoint 112</name><description>Endpoint of completed half-mile Segment 112. Position is measured along the exported runner route geometry.</description>
      <styleUrl>#mileMarker</styleUrl><Point><coordinates>-117.90469682278793,33.61671,0</coordinates></Point></Placemark>
    <Placemark><name>Checkpoint 113</name><description>Endpoint of completed half-mile Segment 113. Position is measured along the exported runner route geometry.</description>
      <styleUrl>#mileMarker</styleUrl><Point><coordinates>-117.8967415223068,33.614316354012345,0</coordinates></Point></Placemark>
    <Placemark><name>Checkpoint 114</name><description>Endpoint of completed half-mile Segment 114. Position is measured along the exported runner route geometry.</description>
      <styleUrl>#mileMarker</styleUrl><Point><coordinates>-117.88849290880016,33.61229,0</coordinates></Point></Placemark>
    <Placemark><name>Checkpoint 115</name><description>Endpoint of completed half-mile Segment 115. Position is measured along the exported runner route geometry.</description>
      <styleUrl>#mileMarker</styleUrl><Point><coordinates>-117.88094104052553,33.6090450280744,0</coordinates></Point></Placemark>
    <Placemark><name>Checkpoint 116</name><description>Endpoint of completed half-mile Segment 116. Position is measured along the exported runner route geometry.</description>
      <styleUrl>#mileMarker</styleUrl><Point><coordinates>-117.87430046932843,33.604382455919044,0</coordinates></Point></Placemark>
    <Placemark><name>Checkpoint 117</name><description>Endpoint of completed half-mile Segment 117. Position is measured along the exported runner route geometry.</description>
      <styleUrl>#mileMarker</styleUrl><Point><coordinates>-117.871595,33.59755686895759,0</coordinates></Point></Placemark>
    <Placemark><name>Checkpoint 118</name><description>Endpoint of completed half-mile Segment 118. Position is measured along the exported runner route geometry.</description>
      <styleUrl>#mileMarker</styleUrl><Point><coordinates>-117.86530857133742,33.59285629839079,0</coordinates></Point></Placemark>
    <Placemark><name>Checkpoint 119</name><description>Endpoint of completed half-mile Segment 119. Position is measured along the exported runner route geometry.</description>
      <styleUrl>#mileMarker</styleUrl><Point><coordinates>-117.85795051844728,33.58900927119542,0</coordinates></Point></Placemark>
    <Placemark><name>Checkpoint 120</name><description>Endpoint of completed half-mile Segment 120. Position is measured along the exported runner route geometry.</description>
      <styleUrl>#mileMarker</styleUrl><Point><coordinates>-117.85119128554254,33.58447219844686,0</coordinates></Point></Placemark>
    <Placemark><name>Checkpoint 121</name><description>Endpoint of completed half-mile Segment 121. Position is measured along the exported runner route geometry.</description>
      <styleUrl>#mileMarker</styleUrl><Point><coordinates>-117.84451179621618,33.579847552349484,0</coordinates></Point></Placemark>
    <Placemark><name>Checkpoint 122</name><description>Endpoint of completed half-mile Segment 122. Position is measured along the exported runner route geometry.</description>
      <styleUrl>#mileMarker</styleUrl><Point><coordinates>-117.8392401559004,33.574282249440635,0</coordinates></Point></Placemark>
    <Placemark><name>Checkpoint 123</name><description>Endpoint of completed half-mile Segment 123. Position is measured along the exported runner route geometry.</description>
      <styleUrl>#mileMarker</styleUrl><Point><coordinates>-117.83345755370162,33.56893345242287,0</coordinates></Point></Placemark>
    <Placemark><name>Checkpoint 124</name><description>Endpoint of completed half-mile Segment 124. Position is measured along the exported runner route geometry.</description>
      <styleUrl>#mileMarker</styleUrl><Point><coordinates>-117.82658572754808,33.56451645274973,0</coordinates></Point></Placemark>
    <Placemark><name>Checkpoint 125</name><description>Endpoint of completed half-mile Segment 125. Position is measured along the exported runner route geometry.</description>
      <styleUrl>#mileMarker</styleUrl><Point><coordinates>-117.82033976512959,33.559543581959026,0</coordinates></Point></Placemark>
    <Placemark><name>Checkpoint 126</name><description>Endpoint of completed half-mile Segment 126. Position is measured along the exported runner route geometry.</description>
      <styleUrl>#mileMarker</styleUrl><Point><coordinates>-117.81346139488714,33.55527924117268,0</coordinates></Point></Placemark>
    <Placemark><name>Checkpoint 127</name><description>Endpoint of completed half-mile Segment 127. Position is measured along the exported runner route geometry.</description>
      <styleUrl>#mileMarker</styleUrl><Point><coordinates>-117.80600954347439,33.55195561880747,0</coordinates></Point></Placemark>
    <Placemark><name>Checkpoint 128</name><description>Endpoint of completed half-mile Segment 128. Position is measured along the exported runner route geometry.</description>
      <styleUrl>#mileMarker</styleUrl><Point><coordinates>-117.79907765399808,33.548004228308876,0</coordinates></Point></Placemark>
    <Placemark><name>Checkpoint 129</name><description>Endpoint of completed half-mile Segment 129. Position is measured along the exported runner route geometry.</description>
      <styleUrl>#mileMarker</styleUrl><Point><coordinates>-117.79126045547775,33.544911166855925,0</coordinates></Point></Placemark>
    <Placemark><name>Checkpoint 130</name><description>Endpoint of completed half-mile Segment 130. Position is measured along the exported runner route geometry.</description>
      <styleUrl>#mileMarker</styleUrl><Point><coordinates>-117.78342329817491,33.54196732251572,0</coordinates></Point></Placemark>
    <Placemark><name>Checkpoint 131</name><description>Endpoint of completed half-mile Segment 131. Position is measured along the exported runner route geometry.</description>
      <styleUrl>#mileMarker</styleUrl><Point><coordinates>-117.7784394838562,33.53604660614951,0</coordinates></Point></Placemark>
    <Placemark><name>Checkpoint 132</name><description>Endpoint of completed half-mile Segment 132. Position is measured along the exported runner route geometry.</description>
      <styleUrl>#mileMarker</styleUrl><Point><coordinates>-117.77316339087339,33.530364335034335,0</coordinates></Point></Placemark>
    <Placemark><name>Checkpoint 133</name><description>Endpoint of completed half-mile Segment 133. Position is measured along the exported runner route geometry.</description>
      <styleUrl>#mileMarker</styleUrl><Point><coordinates>-117.76701866598614,33.525253502754246,0</coordinates></Point></Placemark>
    <Placemark><name>Checkpoint 134</name><description>Endpoint of completed half-mile Segment 134. Position is measured along the exported runner route geometry.</description>
      <styleUrl>#mileMarker</styleUrl><Point><coordinates>-117.76091340299482,33.52016358870671,0</coordinates></Point></Placemark>
    <Placemark><name>Checkpoint 135</name><description>Endpoint of completed half-mile Segment 135. Position is measured along the exported runner route geometry.</description>
      <styleUrl>#mileMarker</styleUrl><Point><coordinates>-117.75572866742526,33.51437782636744,0</coordinates></Point></Placemark>
    <Placemark><name>Checkpoint 136</name><description>Endpoint of completed half-mile Segment 136. Position is measured along the exported runner route geometry.</description>
      <styleUrl>#mileMarker</styleUrl><Point><coordinates>-117.75047566540286,33.50867982509955,0</coordinates></Point></Placemark>
    <Placemark><name>Checkpoint 137</name><description>Endpoint of completed half-mile Segment 137. Position is measured along the exported runner route geometry.</description>
      <styleUrl>#mileMarker</styleUrl><Point><coordinates>-117.74495431439313,33.503159448119355,0</coordinates></Point></Placemark>
    <Placemark><name>Checkpoint 138</name><description>Endpoint of completed half-mile Segment 138. Position is measured along the exported runner route geometry.</description>
      <styleUrl>#mileMarker</styleUrl><Point><coordinates>-117.73947135931463,33.49769740017316,0</coordinates></Point></Placemark>
    <Placemark><name>Checkpoint 139</name><description>Endpoint of completed half-mile Segment 139. Position is measured along the exported runner route geometry.</description>
      <styleUrl>#mileMarker</styleUrl><Point><coordinates>-117.73404633289,33.49219921712008,0</coordinates></Point></Placemark>
    <Placemark><name>Checkpoint 140</name><description>Endpoint of completed half-mile Segment 140. Position is measured along the exported runner route geometry.</description>
      <styleUrl>#mileMarker</styleUrl><Point><coordinates>-117.72779473842803,33.48718763683124,0</coordinates></Point></Placemark>
    <Placemark><name>Checkpoint 141</name><description>Endpoint of completed half-mile Segment 141. Position is measured along the exported runner route geometry.</description>
      <styleUrl>#mileMarker</styleUrl><Point><coordinates>-117.72178336208484,33.481969315663704,0</coordinates></Point></Placemark>
    <Placemark><name>Checkpoint 142</name><description>Endpoint of completed half-mile Segment 142. Position is measured along the exported runner route geometry.</description>
      <styleUrl>#mileMarker</styleUrl><Point><coordinates>-117.71695418063784,33.476005271744725,0</coordinates></Point></Placemark>
    <Placemark><name>Checkpoint 143</name><description>Endpoint of completed half-mile Segment 143. Position is measured along the exported runner route geometry.</description>
      <styleUrl>#mileMarker</styleUrl><Point><coordinates>-117.71275758989954,33.469671938897704,0</coordinates></Point></Placemark>
    <Placemark><name>Checkpoint 144</name><description>Endpoint of completed half-mile Segment 144. Position is measured along the exported runner route geometry.</description>
      <styleUrl>#mileMarker</styleUrl><Point><coordinates>-117.70681389788652,33.46537281836647,0</coordinates></Point></Placemark>
    <Placemark><name>Checkpoint 145</name><description>Endpoint of completed half-mile Segment 145. Position is measured along the exported runner route geometry.</description>
      <styleUrl>#mileMarker</styleUrl><Point><coordinates>-117.69864447530652,33.46705790530763,0</coordinates></Point></Placemark>
    <Placemark><name>Checkpoint 146</name><description>Endpoint of completed half-mile Segment 146. Position is measured along the exported runner route geometry.</description>
      <styleUrl>#mileMarker</styleUrl><Point><coordinates>-117.69037443671546,33.465683094721015,0</coordinates></Point></Placemark>
    <Placemark><name>Checkpoint 147</name><description>Endpoint of completed half-mile Segment 147. Position is measured along the exported runner route geometry.</description>
      <styleUrl>#mileMarker</styleUrl><Point><coordinates>-117.68776257400233,33.46371192305103,0</coordinates></Point></Placemark>
    <Placemark><name>Checkpoint 148</name><description>Endpoint of completed half-mile Segment 148. Position is measured along the exported runner route geometry.</description>
      <styleUrl>#mileMarker</styleUrl><Point><coordinates>-117.67985629027308,33.462934001994476,0</coordinates></Point></Placemark>
    <Placemark><name>Checkpoint 149</name><description>Endpoint of completed half-mile Segment 149. Position is measured along the exported runner route geometry.</description>
      <styleUrl>#mileMarker</styleUrl><Point><coordinates>-117.67292491961805,33.458621129187094,0</coordinates></Point></Placemark>
    <Placemark><name>Checkpoint 150</name><description>Endpoint of completed half-mile Segment 150. Position is measured along the exported runner route geometry.</description>
      <styleUrl>#mileMarker</styleUrl><Point><coordinates>-117.66597286570632,33.45429673410487,0</coordinates></Point></Placemark>
    <Placemark><name>Checkpoint 151</name><description>Endpoint of completed half-mile Segment 151. Position is measured along the exported runner route geometry.</description>
      <styleUrl>#mileMarker</styleUrl><Point><coordinates>-117.65847934891224,33.45066988140275,0</coordinates></Point></Placemark>
    <Placemark><name>Checkpoint 152</name><description>Endpoint of completed half-mile Segment 152. Position is measured along the exported runner route geometry.</description>
      <styleUrl>#mileMarker</styleUrl><Point><coordinates>-117.65176691565861,33.44611084633529,0</coordinates></Point></Placemark>
    <Placemark><name>Checkpoint 153</name><description>Endpoint of completed half-mile Segment 153. Position is measured along the exported runner route geometry.</description>
      <styleUrl>#mileMarker</styleUrl><Point><coordinates>-117.64520957226054,33.44139586317917,0</coordinates></Point></Placemark>
    <Placemark><name>Checkpoint 154</name><description>Endpoint of completed half-mile Segment 154. Position is measured along the exported runner route geometry.</description>
      <styleUrl>#mileMarker</styleUrl><Point><coordinates>-117.6385129412833,33.436815841390285,0</coordinates></Point></Placemark>
    <Placemark><name>Checkpoint 155</name><description>Endpoint of completed half-mile Segment 155. Position is measured along the exported runner route geometry.</description>
      <styleUrl>#mileMarker</styleUrl><Point><coordinates>-117.63166862047403,33.43283423307076,0</coordinates></Point></Placemark>
    <Placemark><name>Checkpoint 156</name><description>Endpoint of completed half-mile Segment 156. Position is measured along the exported runner route geometry.</description>
      <styleUrl>#mileMarker</styleUrl><Point><coordinates>-117.62321157776327,33.43229002748271,0</coordinates></Point></Placemark>
    <Placemark><name>Checkpoint 157</name><description>Endpoint of completed half-mile Segment 157. Position is measured along the exported runner route geometry.</description>
      <styleUrl>#mileMarker</styleUrl><Point><coordinates>-117.61546415566981,33.429829108178616,0</coordinates></Point></Placemark>
    <Placemark><name>Checkpoint 158</name><description>Endpoint of completed half-mile Segment 158. Position is measured along the exported runner route geometry.</description>
      <styleUrl>#mileMarker</styleUrl><Point><coordinates>-117.60991554593708,33.42446296084928,0</coordinates></Point></Placemark>
    <Placemark><name>Checkpoint 159</name><description>Endpoint of completed half-mile Segment 159. Position is measured along the exported runner route geometry.</description>
      <styleUrl>#mileMarker</styleUrl><Point><coordinates>-117.60645751787277,33.418429712190395,0</coordinates></Point></Placemark>
    <Placemark><name>Checkpoint 160</name><description>Endpoint of completed half-mile Segment 160. Position is measured along the exported runner route geometry.</description>
      <styleUrl>#mileMarker</styleUrl><Point><coordinates>-117.6021449536024,33.41234369625395,0</coordinates></Point></Placemark>
    <Placemark><name>Checkpoint 161</name><description>Endpoint of completed half-mile Segment 161. Position is measured along the exported runner route geometry.</description>
      <styleUrl>#mileMarker</styleUrl><Point><coordinates>-117.59947041420959,33.40750333711583,0</coordinates></Point></Placemark>
    <Placemark><name>Checkpoint 162</name><description>Endpoint of completed half-mile Segment 162. Position is measured along the exported runner route geometry.</description>
      <styleUrl>#mileMarker</styleUrl><Point><coordinates>-117.59611242202521,33.40083178742627,0</coordinates></Point></Placemark>
    <Placemark><name>Checkpoint 163</name><description>Endpoint of completed half-mile Segment 163. Position is measured along the exported runner route geometry.</description>
      <styleUrl>#mileMarker</styleUrl><Point><coordinates>-117.59244460249597,33.39428336596476,0</coordinates></Point></Placemark>
    <Placemark><name>Checkpoint 164</name><description>Endpoint of completed half-mile Segment 164. Position is measured along the exported runner route geometry.</description>
      <styleUrl>#mileMarker</styleUrl><Point><coordinates>-117.58769412756091,33.38823707598056,0</coordinates></Point></Placemark>
    <Placemark><name>Checkpoint 165</name><description>Endpoint of completed half-mile Segment 165. Position is measured along the exported runner route geometry.</description>
      <styleUrl>#mileMarker</styleUrl><Point><coordinates>-117.58050407731943,33.38433021797155,0</coordinates></Point></Placemark>
    <Placemark><name>Checkpoint 166</name><description>Endpoint of completed half-mile Segment 166. Position is measured along the exported runner route geometry.</description>
      <styleUrl>#mileMarker</styleUrl><Point><coordinates>-117.5726543511283,33.38126354723062,0</coordinates></Point></Placemark>
    <Placemark><name>Checkpoint 167</name><description>Endpoint of completed half-mile Segment 167. Position is measured along the exported runner route geometry.</description>
      <styleUrl>#mileMarker</styleUrl><Point><coordinates>-117.56494664202941,33.37799003687628,0</coordinates></Point></Placemark>
    <Placemark><name>Checkpoint 168</name><description>Endpoint of completed half-mile Segment 168. Position is measured along the exported runner route geometry.</description>
      <styleUrl>#mileMarker</styleUrl><Point><coordinates>-117.55833653636965,33.373366101750634,0</coordinates></Point></Placemark>
    <Placemark><name>Checkpoint 169</name><description>Endpoint of completed half-mile Segment 169. Position is measured along the exported runner route geometry.</description>
      <styleUrl>#mileMarker</styleUrl><Point><coordinates>-117.55109198476823,33.36939571113272,0</coordinates></Point></Placemark>
    <Placemark><name>Checkpoint 170</name><description>Endpoint of completed half-mile Segment 170. Position is measured along the exported runner route geometry.</description>
      <styleUrl>#mileMarker</styleUrl><Point><coordinates>-117.54409684613958,33.365140056498994,0</coordinates></Point></Placemark>
    <Placemark><name>Checkpoint 171</name><description>Endpoint of completed half-mile Segment 171. Position is measured along the exported runner route geometry.</description>
      <styleUrl>#mileMarker</styleUrl><Point><coordinates>-117.53739693728186,33.360551894083095,0</coordinates></Point></Placemark>
    <Placemark><name>Checkpoint 172</name><description>Endpoint of completed half-mile Segment 172. Position is measured along the exported runner route geometry.</description>
      <styleUrl>#mileMarker</styleUrl><Point><coordinates>-117.53069702842414,33.35596373166719,0</coordinates></Point></Placemark>
    <Placemark><name>Checkpoint 173</name><description>Endpoint of completed half-mile Segment 173. Position is measured along the exported runner route geometry.</description>
      <styleUrl>#mileMarker</styleUrl><Point><coordinates>-117.52399711956643,33.35137556925129,0</coordinates></Point></Placemark>
    <Placemark><name>Checkpoint 174</name><description>Endpoint of completed half-mile Segment 174. Position is measured along the exported runner route geometry.</description>
      <styleUrl>#mileMarker</styleUrl><Point><coordinates>-117.517324547258,33.34676050001009,0</coordinates></Point></Placemark>
    <Placemark><name>Checkpoint 175</name><description>Endpoint of completed half-mile Segment 175. Position is measured along the exported runner route geometry.</description>
      <styleUrl>#mileMarker</styleUrl><Point><coordinates>-117.51078824227632,33.34201170585435,0</coordinates></Point></Placemark>
    <Placemark><name>Checkpoint 176</name><description>Endpoint of completed half-mile Segment 176. Position is measured along the exported runner route geometry.</description>
      <styleUrl>#mileMarker</styleUrl><Point><coordinates>-117.50425767217943,33.337257955151,0</coordinates></Point></Placemark>
    <Placemark><name>Checkpoint 177</name><description>Endpoint of completed half-mile Segment 177. Position is measured along the exported runner route geometry.</description>
      <styleUrl>#mileMarker</styleUrl><Point><coordinates>-117.49772710208256,33.33250420444766,0</coordinates></Point></Placemark>
    <Placemark><name>Checkpoint 178</name><description>Endpoint of completed half-mile Segment 178. Position is measured along the exported runner route geometry.</description>
      <styleUrl>#mileMarker</styleUrl><Point><coordinates>-117.49119653198568,33.327750453744315,0</coordinates></Point></Placemark>
    <Placemark><name>Checkpoint 179</name><description>Endpoint of completed half-mile Segment 179. Position is measured along the exported runner route geometry.</description>
      <styleUrl>#mileMarker</styleUrl><Point><coordinates>-117.48470161189506,33.322964924269066,0</coordinates></Point></Placemark>
    <Placemark><name>Checkpoint 180</name><description>Endpoint of completed half-mile Segment 180. Position is measured along the exported runner route geometry.</description>
      <styleUrl>#mileMarker</styleUrl><Point><coordinates>-117.4823578490864,33.31618300029617,0</coordinates></Point></Placemark>
    <Placemark><name>Checkpoint 181</name><description>Endpoint of completed half-mile Segment 181. Position is measured along the exported runner route geometry.</description>
      <styleUrl>#mileMarker</styleUrl><Point><coordinates>-117.47840549491697,33.31000534988022,0</coordinates></Point></Placemark>
    <Placemark><name>Checkpoint 182</name><description>Endpoint of completed half-mile Segment 182. Position is measured along the exported runner route geometry.</description>
      <styleUrl>#mileMarker</styleUrl><Point><coordinates>-117.47224444565391,33.30492075529564,0</coordinates></Point></Placemark>
    <Placemark><name>Checkpoint 183</name><description>Endpoint of completed half-mile Segment 183. Position is measured along the exported runner route geometry.</description>
      <styleUrl>#mileMarker</styleUrl><Point><coordinates>-117.46608339639087,33.29983616071106,0</coordinates></Point></Placemark>
    <Placemark><name>Checkpoint 184</name><description>Endpoint of completed half-mile Segment 184. Position is measured along the exported runner route geometry.</description>
      <styleUrl>#mileMarker</styleUrl><Point><coordinates>-117.45992234712783,33.29475156612648,0</coordinates></Point></Placemark>
    <Placemark><name>Checkpoint 185</name><description>Endpoint of completed half-mile Segment 185. Position is measured along the exported runner route geometry.</description>
      <styleUrl>#mileMarker</styleUrl><Point><coordinates>-117.45505539571704,33.28878803430613,0</coordinates></Point></Placemark>
    <Placemark><name>Checkpoint 186</name><description>Endpoint of completed half-mile Segment 186. Position is measured along the exported runner route geometry.</description>
      <styleUrl>#mileMarker</styleUrl><Point><coordinates>-117.4504168855295,33.282678038510795,0</coordinates></Point></Placemark>
    <Placemark><name>Checkpoint 187</name><description>Endpoint of completed half-mile Segment 187. Position is measured along the exported runner route geometry.</description>
      <styleUrl>#mileMarker</styleUrl><Point><coordinates>-117.44577837534197,33.27656804271546,0</coordinates></Point></Placemark>
    <Placemark><name>Checkpoint 188</name><description>Endpoint of completed half-mile Segment 188. Position is measured along the exported runner route geometry.</description>
      <styleUrl>#mileMarker</styleUrl><Point><coordinates>-117.44049963961145,33.27089850309769,0</coordinates></Point></Placemark>
    <Placemark><name>Checkpoint 189</name><description>Endpoint of completed half-mile Segment 189. Position is measured along the exported runner route geometry.</description>
      <styleUrl>#mileMarker</styleUrl><Point><coordinates>-117.4340076162455,33.26611268348589,0</coordinates></Point></Placemark>
    <Placemark><name>Checkpoint 190</name><description>Endpoint of completed half-mile Segment 190. Position is measured along the exported runner route geometry.</description>
      <styleUrl>#mileMarker</styleUrl><Point><coordinates>-117.42863074565034,33.26049645469915,0</coordinates></Point></Placemark>
    <Placemark><name>Checkpoint 191</name><description>Endpoint of completed half-mile Segment 191. Position is measured along the exported runner route geometry.</description>
      <styleUrl>#mileMarker</styleUrl><Point><coordinates>-117.423850639084,33.25446402569333,0</coordinates></Point></Placemark>
    <Placemark><name>Checkpoint 192</name><description>Endpoint of completed half-mile Segment 192. Position is measured along the exported runner route geometry.</description>
      <styleUrl>#mileMarker</styleUrl><Point><coordinates>-117.41907254015082,33.248430505646496,0</coordinates></Point></Placemark>
    <Placemark><name>Checkpoint 193</name><description>Endpoint of completed half-mile Segment 193. Position is measured along the exported runner route geometry.</description>
      <styleUrl>#mileMarker</styleUrl><Point><coordinates>-117.41547774655271,33.24187952724868,0</coordinates></Point></Placemark>
    <Placemark><name>Checkpoint 194</name><description>Endpoint of completed half-mile Segment 194. Position is measured along the exported runner route geometry.</description>
      <styleUrl>#mileMarker</styleUrl><Point><coordinates>-117.40885221008352,33.23727928093263,0</coordinates></Point></Placemark>
    <Placemark><name>Checkpoint 195</name><description>Endpoint of completed half-mile Segment 195. Position is measured along the exported runner route geometry.</description>
      <styleUrl>#mileMarker</styleUrl><Point><coordinates>-117.40292508406928,33.232007812839655,0</coordinates></Point></Placemark>
    <Placemark><name>Checkpoint 196</name><description>Endpoint of completed half-mile Segment 196. Position is measured along the exported runner route geometry.</description>
      <styleUrl>#mileMarker</styleUrl><Point><coordinates>-117.39703619792817,33.226706641330274,0</coordinates></Point></Placemark>
    <Placemark><name>Checkpoint 197</name><description>Endpoint of completed half-mile Segment 197. Position is measured along the exported runner route geometry.</description>
      <styleUrl>#mileMarker</styleUrl><Point><coordinates>-117.39189673627611,33.22098326968771,0</coordinates></Point></Placemark>
    <Placemark><name>Checkpoint 198</name><description>Endpoint of completed half-mile Segment 198. Position is measured along the exported runner route geometry.</description>
      <styleUrl>#mileMarker</styleUrl><Point><coordinates>-117.38964883308549,33.21400178215611,0</coordinates></Point></Placemark>
    <Placemark><name>Checkpoint 199</name><description>Endpoint of completed half-mile Segment 199. Position is measured along the exported runner route geometry.</description>
      <styleUrl>#mileMarker</styleUrl><Point><coordinates>-117.3868109939577,33.208606075335844,0</coordinates></Point></Placemark>
    <Placemark><name>Checkpoint 200</name><description>Endpoint of completed half-mile Segment 200. Position is measured along the exported runner route geometry.</description>
      <styleUrl>#mileMarker</styleUrl><Point><coordinates>-117.38438742203493,33.201891630515284,0</coordinates></Point></Placemark>
    <Placemark><name>Checkpoint 201</name><description>Endpoint of completed half-mile Segment 201. Position is measured along the exported runner route geometry.</description>
      <styleUrl>#mileMarker</styleUrl><Point><coordinates>-117.37965236142911,33.19590175904726,0</coordinates></Point></Placemark>
    <Placemark><name>Checkpoint 202</name><description>Endpoint of completed half-mile Segment 202. Position is measured along the exported runner route geometry.</description>
      <styleUrl>#mileMarker</styleUrl><Point><coordinates>-117.37469847222009,33.190032085684855,0</coordinates></Point></Placemark>
    <Placemark><name>Checkpoint 203</name><description>Endpoint of completed half-mile Segment 203. Position is measured along the exported runner route geometry.</description>
      <styleUrl>#mileMarker</styleUrl><Point><coordinates>-117.36982633785581,33.18414267204474,0</coordinates></Point></Placemark>
    <Placemark><name>Checkpoint 204</name><description>Endpoint of completed half-mile Segment 204. Position is measured along the exported runner route geometry.</description>
      <styleUrl>#mileMarker</styleUrl><Point><coordinates>-117.36492860639538,33.17827837412795,0</coordinates></Point></Placemark>
    <Placemark><name>Checkpoint 205</name><description>Endpoint of completed half-mile Segment 205. Position is measured along the exported runner route geometry.</description>
      <styleUrl>#mileMarker</styleUrl><Point><coordinates>-117.35996434915234,33.172425184797326,0</coordinates></Point></Placemark>
    <Placemark><name>Checkpoint 206</name><description>Endpoint of completed half-mile Segment 206. Position is measured along the exported runner route geometry.</description>
      <styleUrl>#mileMarker</styleUrl><Point><coordinates>-117.35497085333057,33.16673802605274,0</coordinates></Point></Placemark>
    <Placemark><name>Checkpoint 207</name><description>Endpoint of completed half-mile Segment 207. Position is measured along the exported runner route geometry.</description>
      <styleUrl>#mileMarker</styleUrl><Point><coordinates>-117.35287032435933,33.16030328042049,0</coordinates></Point></Placemark>
    <Placemark><name>Checkpoint 208</name><description>Endpoint of completed half-mile Segment 208. Position is measured along the exported runner route geometry.</description>
      <styleUrl>#mileMarker</styleUrl><Point><coordinates>-117.35021094231472,33.15377157548203,0</coordinates></Point></Placemark>
    <Placemark><name>Checkpoint 209</name><description>Endpoint of completed half-mile Segment 209. Position is measured along the exported runner route geometry.</description>
      <styleUrl>#mileMarker</styleUrl><Point><coordinates>-117.34559670404848,33.1476559716148,0</coordinates></Point></Placemark>
    <Placemark><name>Checkpoint 210</name><description>Endpoint of completed half-mile Segment 210. Position is measured along the exported runner route geometry.</description>
      <styleUrl>#mileMarker</styleUrl><Point><coordinates>-117.34084341204768,33.14163347645031,0</coordinates></Point></Placemark>
    <Placemark><name>Checkpoint 211</name><description>Endpoint of completed half-mile Segment 211. Position is measured along the exported runner route geometry.</description>
      <styleUrl>#mileMarker</styleUrl><Point><coordinates>-117.33734180128046,33.13502244784085,0</coordinates></Point></Placemark>
    <Placemark><name>Checkpoint 212</name><description>Endpoint of completed half-mile Segment 212. Position is measured along the exported runner route geometry.</description>
      <styleUrl>#mileMarker</styleUrl><Point><coordinates>-117.33295880627544,33.128800510804005,0</coordinates></Point></Placemark>
    <Placemark><name>Checkpoint 213</name><description>Endpoint of completed half-mile Segment 213. Position is measured along the exported runner route geometry.</description>
      <styleUrl>#mileMarker</styleUrl><Point><coordinates>-117.32787736303575,33.12342994369763,0</coordinates></Point></Placemark>
    <Placemark><name>Checkpoint 214</name><description>Endpoint of completed half-mile Segment 214. Position is measured along the exported runner route geometry.</description>
      <styleUrl>#mileMarker</styleUrl><Point><coordinates>-117.32463079513576,33.11675448863494,0</coordinates></Point></Placemark>
    <Placemark><name>Checkpoint 215</name><description>Endpoint of completed half-mile Segment 215. Position is measured along the exported runner route geometry.</description>
      <styleUrl>#mileMarker</styleUrl><Point><coordinates>-117.3216125029254,33.1099910787003,0</coordinates></Point></Placemark>
    <Placemark><name>Checkpoint 216</name><description>Endpoint of completed half-mile Segment 216. Position is measured along the exported runner route geometry.</description>
      <styleUrl>#mileMarker</styleUrl><Point><coordinates>-117.31863965159627,33.10320977706977,0</coordinates></Point></Placemark>
    <Placemark><name>Checkpoint 217</name><description>Endpoint of completed half-mile Segment 217. Position is measured along the exported runner route geometry.</description>
      <styleUrl>#mileMarker</styleUrl><Point><coordinates>-117.31589882156945,33.09642284952983,0</coordinates></Point></Placemark>
    <Placemark><name>Checkpoint 218</name><description>Endpoint of completed half-mile Segment 218. Position is measured along the exported runner route geometry.</description>
      <styleUrl>#mileMarker</styleUrl><Point><coordinates>-117.31296699707771,33.08966337737525,0</coordinates></Point></Placemark>
    <Placemark><name>Checkpoint 219</name><description>Endpoint of completed half-mile Segment 219. Position is measured along the exported runner route geometry.</description>
      <styleUrl>#mileMarker</styleUrl><Point><coordinates>-117.3093107563569,33.08322056771112,0</coordinates></Point></Placemark>
    <Placemark><name>Checkpoint 220</name><description>Endpoint of completed half-mile Segment 220. Position is measured along the exported runner route geometry.</description>
      <styleUrl>#mileMarker</styleUrl><Point><coordinates>-117.306209346931,33.07657070869581,0</coordinates></Point></Placemark>
    <Placemark><name>Checkpoint 221</name><description>Endpoint of completed half-mile Segment 221. Position is measured along the exported runner route geometry.</description>
      <styleUrl>#mileMarker</styleUrl><Point><coordinates>-117.30388411433063,33.069607452239985,0</coordinates></Point></Placemark>
    <Placemark><name>Checkpoint 222</name><description>Endpoint of completed half-mile Segment 222. Position is measured along the exported runner route geometry.</description>
      <styleUrl>#mileMarker</styleUrl><Point><coordinates>-117.30154800366778,33.06265100962792,0</coordinates></Point></Placemark>
    <Placemark><name>Checkpoint 223</name><description>Endpoint of completed half-mile Segment 223. Position is measured along the exported runner route geometry.</description>
      <styleUrl>#mileMarker</styleUrl><Point><coordinates>-117.29786477780779,33.05616422392493,0</coordinates></Point></Placemark>
    <Placemark><name>Checkpoint 224</name><description>Endpoint of completed half-mile Segment 224. Position is measured along the exported runner route geometry.</description>
      <styleUrl>#mileMarker</styleUrl><Point><coordinates>-117.29420947735693,33.04966281697118,0</coordinates></Point></Placemark>
    <Placemark><name>Checkpoint 225</name><description>Endpoint of completed half-mile Segment 225. Position is measured along the exported runner route geometry.</description>
      <styleUrl>#mileMarker</styleUrl><Point><coordinates>-117.29327466801844,33.04265543842012,0</coordinates></Point></Placemark>
    <Placemark><name>Checkpoint 226</name><description>Endpoint of completed half-mile Segment 226. Position is measured along the exported runner route geometry.</description>
      <styleUrl>#mileMarker</styleUrl><Point><coordinates>-117.29168584611104,33.0358089127406,0</coordinates></Point></Placemark>
    <Placemark><name>Checkpoint 227</name><description>Endpoint of completed half-mile Segment 227. Position is measured along the exported runner route geometry.</description>
      <styleUrl>#mileMarker</styleUrl><Point><coordinates>-117.28827694564357,33.02916244852424,0</coordinates></Point></Placemark>
    <Placemark><name>Checkpoint 228</name><description>Endpoint of completed half-mile Segment 228. Position is measured along the exported runner route geometry.</description>
      <styleUrl>#mileMarker</styleUrl><Point><coordinates>-117.28440041627844,33.022700315633614,0</coordinates></Point></Placemark>
    <Placemark><name>Checkpoint 229</name><description>Endpoint of completed half-mile Segment 229. Position is measured along the exported runner route geometry.</description>
      <styleUrl>#mileMarker</styleUrl><Point><coordinates>-117.28088307193177,33.01612586263076,0</coordinates></Point></Placemark>
    <Placemark><name>Checkpoint 230</name><description>Endpoint of completed half-mile Segment 230. Position is measured along the exported runner route geometry.</description>
      <styleUrl>#mileMarker</styleUrl><Point><coordinates>-117.2786960846782,33.009148517688864,0</coordinates></Point></Placemark>
    <Placemark><name>Checkpoint 231</name><description>Endpoint of completed half-mile Segment 231. Position is measured along the exported runner route geometry.</description>
      <styleUrl>#mileMarker</styleUrl><Point><coordinates>-117.27685365933601,33.00213288831406,0</coordinates></Point></Placemark>
    <Placemark><name>Checkpoint 232</name><description>Endpoint of completed half-mile Segment 232. Position is measured along the exported runner route geometry.</description>
      <styleUrl>#mileMarker</styleUrl><Point><coordinates>-117.27273757088952,32.99583110877053,0</coordinates></Point></Placemark>
    <Placemark><name>Checkpoint 233</name><description>Endpoint of completed half-mile Segment 233. Position is measured along the exported runner route geometry.</description>
      <styleUrl>#mileMarker</styleUrl><Point><coordinates>-117.27085709505471,32.988836514017365,0</coordinates></Point></Placemark>
    <Placemark><name>Checkpoint 234</name><description>Endpoint of completed half-mile Segment 234. Position is measured along the exported runner route geometry.</description>
      <styleUrl>#mileMarker</styleUrl><Point><coordinates>-117.26919199105919,32.98173621460932,0</coordinates></Point></Placemark>
    <Placemark><name>Checkpoint 235</name><description>Endpoint of completed half-mile Segment 235. Position is measured along the exported runner route geometry.</description>
      <styleUrl>#mileMarker</styleUrl><Point><coordinates>-117.26902262404029,32.974826637847734,0</coordinates></Point></Placemark>
    <Placemark><name>Checkpoint 236</name><description>Endpoint of completed half-mile Segment 236. Position is measured along the exported runner route geometry.</description>
      <styleUrl>#mileMarker</styleUrl><Point><coordinates>-117.26772809927718,32.967803347470124,0</coordinates></Point></Placemark>
    <Placemark><name>Checkpoint 237</name><description>Endpoint of completed half-mile Segment 237. Position is measured along the exported runner route geometry.</description>
      <styleUrl>#mileMarker</styleUrl><Point><coordinates>-117.2675641459879,32.96066414598791,0</coordinates></Point></Placemark>
    <Placemark><name>Checkpoint 238</name><description>Endpoint of completed half-mile Segment 238. Position is measured along the exported runner route geometry.</description>
      <styleUrl>#mileMarker</styleUrl><Point><coordinates>-117.26377968647918,32.95596217623614,0</coordinates></Point></Placemark>
    <Placemark><name>Checkpoint 239</name><description>Endpoint of completed half-mile Segment 239. Position is measured along the exported runner route geometry.</description>
      <styleUrl>#mileMarker</styleUrl><Point><coordinates>-117.26151610038268,32.949191557691385,0</coordinates></Point></Placemark>
    <Placemark><name>Checkpoint 240</name><description>Endpoint of completed half-mile Segment 240. Position is measured along the exported runner route geometry.</description>
      <styleUrl>#mileMarker</styleUrl><Point><coordinates>-117.26112548041323,32.94220757422176,0</coordinates></Point></Placemark>
    <Placemark><name>Checkpoint 241</name><description>Endpoint of completed half-mile Segment 241. Position is measured along the exported runner route geometry.</description>
      <styleUrl>#mileMarker</styleUrl><Point><coordinates>-117.26071653342363,32.93502402144834,0</coordinates></Point></Placemark>
    <Placemark><name>Checkpoint 242</name><description>Endpoint of completed half-mile Segment 242. Position is measured along the exported runner route geometry.</description>
      <styleUrl>#mileMarker</styleUrl><Point><coordinates>-117.25911723521745,32.928000494565275,0</coordinates></Point></Placemark>
    <Placemark><name>Checkpoint 243</name><description>Endpoint of completed half-mile Segment 243. Position is measured along the exported runner route geometry.</description>
      <styleUrl>#mileMarker</styleUrl><Point><coordinates>-117.25258291274463,32.92334021868894,0</coordinates></Point></Placemark>
    <Placemark><name>Checkpoint 244</name><description>Endpoint of completed half-mile Segment 244. Position is measured along the exported runner route geometry.</description>
      <styleUrl>#mileMarker</styleUrl><Point><coordinates>-117.2483946346054,32.91742156866563,0</coordinates></Point></Placemark>
    <Placemark><name>Checkpoint 245</name><description>Endpoint of completed half-mile Segment 245. Position is measured along the exported runner route geometry.</description>
      <styleUrl>#mileMarker</styleUrl><Point><coordinates>-117.24482709813984,32.910965167094346,0</coordinates></Point></Placemark>
    <Placemark><name>Checkpoint 246</name><description>Endpoint of completed half-mile Segment 246. Position is measured along the exported runner route geometry.</description>
      <styleUrl>#mileMarker</styleUrl><Point><coordinates>-117.24330991687931,32.903847987545774,0</coordinates></Point></Placemark>
    <Placemark><name>Checkpoint 247</name><description>Endpoint of completed half-mile Segment 247. Position is measured along the exported runner route geometry.</description>
      <styleUrl>#mileMarker</styleUrl><Point><coordinates>-117.24188019362134,32.89672093831883,0</coordinates></Point></Placemark>
    <Placemark><name>Checkpoint 248</name><description>Endpoint of completed half-mile Segment 248. Position is measured along the exported runner route geometry.</description>
      <styleUrl>#mileMarker</styleUrl><Point><coordinates>-117.2424409871838,32.890268519224314,0</coordinates></Point></Placemark>
    <Placemark><name>Checkpoint 249</name><description>Endpoint of completed half-mile Segment 249. Position is measured along the exported runner route geometry.</description>
      <styleUrl>#mileMarker</styleUrl><Point><coordinates>-117.24404469401289,32.883302838196954,0</coordinates></Point></Placemark>
    <Placemark><name>Checkpoint 250</name><description>Endpoint of completed half-mile Segment 250. Position is measured along the exported runner route geometry.</description>
      <styleUrl>#mileMarker</styleUrl><Point><coordinates>-117.24385710331237,32.87607682649887,0</coordinates></Point></Placemark>
    <Placemark><name>Checkpoint 251</name><description>Endpoint of completed half-mile Segment 251. Position is measured along the exported runner route geometry.</description>
      <styleUrl>#mileMarker</styleUrl><Point><coordinates>-117.24816586214047,32.870470344648844,0</coordinates></Point></Placemark>
    <Placemark><name>Checkpoint 252</name><description>Endpoint of completed half-mile Segment 252. Position is measured along the exported runner route geometry.</description>
      <styleUrl>#mileMarker</styleUrl><Point><coordinates>-117.25191860855924,32.86849229970883,0</coordinates></Point></Placemark>
    <Placemark><name>Checkpoint 253</name><description>Endpoint of completed half-mile Segment 253. Position is measured along the exported runner route geometry.</description>
      <styleUrl>#mileMarker</styleUrl><Point><coordinates>-117.25342250970162,32.861520106691316,0</coordinates></Point></Placemark>
    <Placemark><name>Checkpoint 254</name><description>Endpoint of completed half-mile Segment 254. Position is measured along the exported runner route geometry.</description>
      <styleUrl>#mileMarker</styleUrl><Point><coordinates>-117.25385390378835,32.85429259653054,0</coordinates></Point></Placemark>
    <Placemark><name>Checkpoint 255</name><description>Endpoint of completed half-mile Segment 255. Position is measured along the exported runner route geometry.</description>
      <styleUrl>#mileMarker</styleUrl><Point><coordinates>-117.2585454594791,32.84980655610006,0</coordinates></Point></Placemark>
    <Placemark><name>Checkpoint 256</name><description>Endpoint of completed half-mile Segment 256. Position is measured along the exported runner route geometry.</description>
      <styleUrl>#mileMarker</styleUrl><Point><coordinates>-117.26662329962161,32.84764154610957,0</coordinates></Point></Placemark>
    <Placemark><name>Checkpoint 257</name><description>Endpoint of completed half-mile Segment 257. Position is measured along the exported runner route geometry.</description>
      <styleUrl>#mileMarker</styleUrl><Point><coordinates>-117.27245599428556,32.842363538021964,0</coordinates></Point></Placemark>
    <Placemark><name>Checkpoint 258</name><description>Endpoint of completed half-mile Segment 258. Position is measured along the exported runner route geometry.</description>
      <styleUrl>#mileMarker</styleUrl><Point><coordinates>-117.27244018162283,32.836297076652464,0</coordinates></Point></Placemark>
    <Placemark><name>Checkpoint 259</name><description>Endpoint of completed half-mile Segment 259. Position is measured along the exported runner route geometry.</description>
      <styleUrl>#mileMarker</styleUrl><Point><coordinates>-117.27530044952321,32.832072158692235,0</coordinates></Point></Placemark>
    <Placemark><name>Checkpoint 260</name><description>Endpoint of completed half-mile Segment 260. Position is measured along the exported runner route geometry.</description>
      <styleUrl>#mileMarker</styleUrl><Point><coordinates>-117.27650309979187,32.825806268823186,0</coordinates></Point></Placemark>
    <Placemark><name>Checkpoint 261</name><description>Endpoint of completed half-mile Segment 261. Position is measured along the exported runner route geometry.</description>
      <styleUrl>#mileMarker</styleUrl><Point><coordinates>-117.27306423976567,32.819350263157254,0</coordinates></Point></Placemark>
    <Placemark><name>Checkpoint 262</name><description>Endpoint of completed half-mile Segment 262. Position is measured along the exported runner route geometry.</description>
      <styleUrl>#mileMarker</styleUrl><Point><coordinates>-117.2690863690159,32.81312339077396,0</coordinates></Point></Placemark>
    <Placemark><name>Checkpoint 263</name><description>Endpoint of completed half-mile Segment 263. Position is measured along the exported runner route geometry.</description>
      <styleUrl>#mileMarker</styleUrl><Point><coordinates>-117.26313662678172,32.8080709523026,0</coordinates></Point></Placemark>
    <Placemark><name>Checkpoint 264</name><description>Endpoint of completed half-mile Segment 264. Position is measured along the exported runner route geometry.</description>
      <styleUrl>#mileMarker</styleUrl><Point><coordinates>-117.25771852834684,32.80347928356067,0</coordinates></Point></Placemark>
    <Placemark><name>Checkpoint 265</name><description>Endpoint of completed half-mile Segment 265. Position is measured along the exported runner route geometry.</description>
      <styleUrl>#mileMarker</styleUrl><Point><coordinates>-117.25548576908521,32.79658324416403,0</coordinates></Point></Placemark>
    <Placemark><name>Checkpoint 266</name><description>Endpoint of completed half-mile Segment 266. Position is measured along the exported runner route geometry.</description>
      <styleUrl>#mileMarker</styleUrl><Point><coordinates>-117.24728511431758,32.79816038105859,0</coordinates></Point></Placemark>
    <Placemark><name>Checkpoint 267</name><description>Endpoint of completed half-mile Segment 267. Position is measured along the exported runner route geometry.</description>
      <styleUrl>#mileMarker</styleUrl><Point><coordinates>-117.2391792254811,32.799678823492854,0</coordinates></Point></Placemark>
  </Folder></Document></kml>
